NORAD_CAT_ID,OBJECT_NAME,OBJECT_TYPE,EPOCH,MEAN_MOTION,ECCENTRICITY,INCLINATION,RA_OF_ASC_NODE,ARG_OF_PERICENTER,MEAN_ANOMALY,BSTAR,MEAN_MOTION_DOT,MEAN_MOTION_DDOT,TLE_LINE0,TLE_LINE1,TLE_LINE2,SEMIMAJOR_AXIS,PERIOD,APOGEE,PERIGEE,DECAYED
52310.0,STARLINK-3688,PAYLOAD,2023-01-19 14:24:45,15.0884654,0.0002612,53.2156,189.6358,51.404,308.7186,7.7666e-05,9.48e-06,0.0,0 STARLINK-3688,1 52310U 22041BB  23019.60052554  .00000948  00000-0  77666-4 0  9999,2 52310  53.2156 189.6358 0002612  51.4040 308.7186 15.08846540 42998,6917.86,95.437,541.5319999999999,537.918,0.0
52310.0,STARLINK-3688,PAYLOAD,2023-01-19 17:35:31,15.08846464,0.0002651,53.2156,189.0412,48.0673,312.0545,0.00010687,1.413e-05,0.0,0 STARLINK-3688,1 52310U 22041BB  23019.73300472  .00001413  00000-0  10687-3 0  9995,2 52310  53.2156 189.0412 0002651  48.0673 312.0545 15.08846464 43016,6917.861,95.437,541.56,537.8919999999999,0.0
52310.0,STARLINK-3688,PAYLOAD,2023-01-20 17:26:18,15.08847551,0.0002458,53.2158,184.5802,53.9539,306.1681,0.00016915,2.405e-05,0.0,0 STARLINK-3688,1 52310U 22041BB  23020.72660155  .00002405  00000-0  16915-3 0  9995,2 52310  53.2158 184.5802 0002458  53.9539 306.1681 15.08847551 43161,6917.857,95.437,541.423,538.0219999999999,0.0
52310.0,STARLINK-3688,PAYLOAD,2023-01-21 10:55:33,15.08839969,0.0002745,53.2147,181.3102,57.763000000000005,302.3628,3.6454e-05,2.92e-06,0.0,0 STARLINK-3688,1 52310U 22041BB  23021.45524891  .00000292  00000-0  36454-4 0  9995,2 52310  53.2147 181.3102 0002745  57.7630 302.3628 15.08839969 43275,6917.88,95.438,541.644,537.847,0.0
52310.0,STARLINK-3688,PAYLOAD,2023-01-22 12:21:43,15.08839988,0.0002387999999999,53.2152,176.5524,57.4012,302.7211,-3.0208000000000003e-05,-7.69e-06,0.0,0 STARLINK-3688,1 52310U 22041BB  23022.51508611 -.00000769  00000-0 -30208-4 0  9997,2 52310  53.2152 176.5524 0002388  57.4012 302.7211 15.08839988 43430,6917.88,95.438,541.3969999999999,538.0930000000001,0.0
52310.0,STARLINK-3688,PAYLOAD,2023-01-23 12:12:31,15.08832974,0.0002147,53.2163,172.092,63.9358,296.1855,4.7513e-05,4.68e-06,0.0,0 STARLINK-3688,1 52310U 22041BB  23023.50869238  .00000468  00000-0  47513-4 0  9993,2 52310  53.2163 172.0920 0002147  63.9358 296.1855 15.08832974 43585,6917.901999999999,95.438,541.252,538.2819999999999,0.0
52310.0,STARLINK-3688,PAYLOAD,2023-01-24 16:49:26,15.08843835,0.0002139,53.2163,166.7378,67.5718,292.55,0.00013757,1.902e-05,0.0,0 STARLINK-3688,1 52310U 22041BB  23024.70100595  .00001902  00000-0  13757-3 0  9996,2 52310  53.2163 166.7378 0002139  67.5718 292.5500 15.08843835 43768,6917.869000000001,95.437,541.2130000000001,538.254,0.0
52310.0,STARLINK-3688,PAYLOAD,2023-01-25 13:29:28,15.08832863,0.0001972,53.2161,162.8736,70.4533,289.6672,9.1967e-05,1.176e-05,0.0,0 STARLINK-3688,1 52310U 22041BB  23025.56213533  .00001176  00000-0  91967-4 0  9991,2 52310  53.2161 162.8736 0001972  70.4533 289.6672 15.08832863 43893,6917.901999999999,95.438,541.131,538.403,0.0
52310.0,STARLINK-3688,PAYLOAD,2023-01-25 16:40:14,15.08840231,0.0001956999999999,53.2163,162.278,72.6022,287.5184,0.00012447,1.693e-05,0.0,0 STARLINK-3688,1 52310U 22041BB  23025.69460974  .00001693  00000-0  12447-3 0  9997,2 52310  53.2163 162.2780 0001957  72.6022 287.5184 15.08840231 43914,6917.88,95.438,541.099,538.391,0.0
52310.0,STARLINK-3688,PAYLOAD,2023-01-26 13:20:15,15.08836611,0.0002008,53.2174,158.4136,73.7201,286.4012,8.7339e-05,1.102e-05,0.0,0 STARLINK-3688,1 52310U 22041BB  23026.55573402  .00001102  00000-0  87339-4 0  9992,2 52310  53.2174 158.4136 0002008  73.7201 286.4012 15.08836611 44047,6917.891,95.438,541.145,538.367,0.0
52310.0,STARLINK-3688,PAYLOAD,2023-01-27 13:11:02,15.08839203,0.0001881,53.2151,153.9527,78.2084,281.9119,9.7623e-05,1.266e-05,0.0,0 STARLINK-3688,1 52310U 22041BB  23027.54933160  .00001266  00000-0  97623-4 0  9991,2 52310  53.2151 153.9527 0001881  78.2084 281.9119 15.08839203 44197,6917.883000000001,95.438,541.049,538.447,0.0
52310.0,STARLINK-3688,PAYLOAD,2023-01-27 14:46:25,15.08842718,0.0001921999999999,53.2154,153.6561,71.3643,288.7557,2.7819e-05,1.55e-06,0.0,0 STARLINK-3688,1 52310U 22041BB  23027.61557174  .00000155  00000-0  27819-4 0  9992,2 52310  53.2154 153.6561 0001922  71.3643 288.7557 15.08842718 44204,6917.871999999999,95.437,541.067,538.4069999999999,0.0
52310.0,STARLINK-3688,PAYLOAD,2023-01-28 13:01:49,15.08837163,0.0001719,53.2159,149.492,78.856,281.2625,5.8054e-05,6.36e-06,0.0,0 STARLINK-3688,1 52310U 22041BB  23028.54293358  .00000636  00000-0  58054-4 0  9995,2 52310  53.2159 149.4920 0001719  78.8560 281.2625 15.08837163 44342,6917.889,95.438,540.943,538.565,0.0
52310.0,STARLINK-3688,PAYLOAD,2023-01-28 17:47:58,15.08832554,0.000185,53.2163,148.5987,84.4058,275.7145,0.00018902,2.721e-05,0.0,0 STARLINK-3688,1 52310U 22041BB  23028.74165252  .00002721  00000-0  18902-3 0  9992,2 52310  53.2163 148.5987 0001850  84.4058 275.7145 15.08832554 44378,6917.903,95.438,541.048,538.488,0.0
52310.0,STARLINK-3688,PAYLOAD,2023-01-29 14:27:59,15.08836397,0.0001669,53.2164,144.7338,86.2463,273.872,-3.0968e-06,-3.37e-06,0.0,0 STARLINK-3688,1 52310U 22041BB  23029.60277768 -.00000337  00000-0 -30968-5 0  9995,2 52310  53.2164 144.7338 0001669  86.2463 273.8720 15.08836397 44507,6917.891,95.438,540.911,538.602,0.0
52310.0,STARLINK-3688,PAYLOAD,2023-01-30 06:21:51,15.08834004,0.000169,53.2167,141.7604,91.9043,268.2143,7.9896e-06,-1.61e-06,0.0,0 STARLINK-3688,1 52310U 22041BB  23030.26518065 -.00000161  00000-0  79896-5 0  9994,2 52310  53.2167 141.7604 0001690  91.9043 268.2143 15.08834004 44605,6917.899,95.438,540.933,538.595,0.0
52310.0,STARLINK-3688,PAYLOAD,2023-01-30 11:08:00,15.08837418,0.0001647,53.216,140.8689,98.0094,262.1086,-2.2733e-06,-3.24e-06,0.0,0 STARLINK-3688,1 52310U 22041BB  23030.46389908 -.00000324  00000-0 -22733-5 0  9998,2 52310  53.2160 140.8689 0001647  98.0094 262.1086 15.08837418 44631,6917.888,95.438,540.893,538.614,0.0
52310.0,STARLINK-3688,PAYLOAD,2023-01-31 12:34:10,15.08837368,0.0001749,53.2163,136.1109,104.1396,255.979,9.3434e-05,1.199e-05,0.0,0 STARLINK-3688,1 52310U 22041BB  23031.52373837  .00001199  00000-0  93434-4 0  9994,2 52310  53.2163 136.1109 0001749 104.1396 255.9790 15.08837368 44799,6917.888,95.438,540.963,538.543,0.0
52310.0,STARLINK-3688,PAYLOAD,2023-01-31 17:20:20,15.0884145,0.0001543,53.2161,135.2189,100.7781,259.3385,0.00011236,1.501e-05,0.0,0 STARLINK-3688,1 52310U 22041BB  23031.72245505  .00001501  00000-0  11236-3 0  9992,2 52310  53.2161 135.2189 0001543 100.7781 259.3385 15.08841450 44826,6917.876,95.437,540.808,538.674,0.0
52310.0,STARLINK-3688,PAYLOAD,2023-02-01 12:24:58,15.08838774,0.0001305,53.216,131.6522,93.466,266.6481,5.2029e-05,5.4e-06,0.0,0 STARLINK-3688,1 52310U 22041BB  23032.51733854  .00000540  00000-0  52029-4 0  9997,2 52310  53.2160 131.6522 0001305  93.4660 266.6481 15.08838774 44942,6917.884,95.438,540.652,538.846,0.0
52310.0,STARLINK-3688,PAYLOAD,2023-02-01 23:32:40,15.08838091,0.0001367,53.2161,129.5708,90.2831,269.8318,5.3926e-05,5.7e-06,0.0,0 STARLINK-3688,1 52310U 22041BB  23032.98101908  .00000570  00000-0  53926-4 0  9997,2 52310  53.2161 129.5708 0001367  90.2831 269.8318 15.08838091 45013,6917.886,95.438,540.697,538.806,0.0
52310.0,STARLINK-3688,PAYLOAD,2023-02-02 10:40:22,15.0883081,0.0001371,53.2157,127.4882,91.2218,268.8931,-6.7987e-06,-3.96e-06,0.0,0 STARLINK-3688,1 52310U 22041BB  23033.44470731 -.00000396  00000-0 -67987-5 0  9993,2 52310  53.2157 127.4882 0001371  91.2218 268.8931 15.08830810 45081,6917.908,95.438,540.722,538.825,0.0
52310.0,STARLINK-3688,PAYLOAD,2023-02-03 08:55:46,15.08833251,0.0001276,53.2155,123.3247,87.8599,272.2539,8.6453e-06,-1.5e-06,0.0,0 STARLINK-3688,1 52310U 22041BB  23034.37206748 -.00000150  00000-0  86453-5 0  9997,2 52310  53.2155 123.3247 0001276  87.8599 272.2539 15.08833251 45227,6917.901,95.438,540.649,538.883,0.0
52310.0,STARLINK-3688,PAYLOAD,2023-02-04 05:35:47,15.0883063,0.0001255,53.2158,119.4582,88.7122,271.4014,0.000229,3.358e-05,0.0,0 STARLINK-3688,1 52310U 22041BB  23035.23318365  .00003358  00000-0  22900-3 0  9999,2 52310  53.2158 119.4582 0001255  88.7122 271.4014 15.08830630 45358,6917.909,95.438,540.642,538.906,0.0
52310.0,STARLINK-3688,PAYLOAD,2023-02-04 11:57:18,15.08847306,0.0001267,53.2154,118.2692,82.5107,277.6029,0.00015303,2.149e-05,0.0,0 STARLINK-3688,1 52310U 22041BB  23035.49813583  .00002149  00000-0  15303-3 0  9995,2 52310  53.2154 118.2692 0001267  82.5107 277.6029 15.08847306 45397,6917.858,95.437,540.6,538.847,0.0
52310.0,STARLINK-3688,PAYLOAD,2023-02-04 13:32:41,15.0884986,0.0001312,53.2154,117.9713,84.8501,275.2641,0.00017092,2.434e-05,0.0,0 STARLINK-3688,1 52310U 22041BB  23035.56437366  .00002434  00000-0  17092-3 0  9998,2 52310  53.2154 117.9713 0001312  84.8501 275.2641 15.08849860 45404,6917.85,95.437,540.623,538.808,0.0
52310.0,STARLINK-3688,PAYLOAD,2023-02-05 11:48:06,15.08838701,0.0001159,53.2163,113.806,107.4903,252.6216,3.8024e-05,3.17e-06,0.0,0 STARLINK-3688,1 52310U 22041BB  23036.49174433  .00000317  00000-0  38024-4 0  9991,2 52310  53.2163 113.8060 0001159 107.4903 252.6216 15.08838701 45545,6917.884,95.438,540.551,538.948,0.0
52310.0,STARLINK-3688,PAYLOAD,2023-02-05 14:58:53,15.0883708,0.0001406,53.2157,113.211,109.145,250.9695,1.3487e-05,-7.3e-07,0.0,0 STARLINK-3688,1 52310U 22041BB  23036.62422608 -.00000073  00000-0  13487-4 0  9992,2 52310  53.2157 113.2110 0001406 109.1450 250.9695 15.08837080 45562,6917.889,95.438,540.727,538.782,0.0
52310.0,STARLINK-3688,PAYLOAD,2023-02-06 11:38:52,15.08853849,0.0001272,53.2155,109.3454,112.4799,247.6328,1.9713e-05,2.6e-07,0.0,0 STARLINK-3688,1 52310U 22041BB  23037.48533387  .00000026  00000-0  19713-4 0  9999,2 52310  53.2155 109.3454 0001272 112.4799 247.6328 15.08853849 45692,6917.838,95.437,540.583,538.823,0.0
